NORAD_CAT_ID,OBJECT_NAME,OBJECT_TYPE,EPOCH,MEAN_MOTION,ECCENTRICITY,INCLINATION,RA_OF_ASC_NODE,ARG_OF_PERICENTER,MEAN_ANOMALY,BSTAR,MEAN_MOTION_DOT,MEAN_MOTION_DDOT,TLE_LINE0,TLE_LINE1,TLE_LINE2,SEMIMAJOR_AXIS,PERIOD,APOGEE,PERIGEE,DECAYED
52333.0,STARLINK-3847,PAYLOAD,2023-11-29 08:12:28,15.08855403,0.0001955,53.2169,341.1882,89.5192,270.6024,0.0005964,9.22e-05,0.0,0 STARLINK-3847,1 52333U 22045C   23333.34199627  .00009220  00000-0  59640-3 0  9994,2 52333  53.2169 341.1882 0001955  89.5192 270.6024 15.08855403 90127,6917.833,95.437,541.051,538.346,0.0
52333.0,STARLINK-3847,PAYLOAD,2023-11-30 09:38:38,15.08855782,0.0002044,53.2172,336.4311,99.7508,260.3715,0.00019998,2.897e-05,0.0,0 STARLINK-3847,1 52333U 22045C   23334.40183026  .00002897  00000-0  19998-3 0  9993,2 52333  53.2172 336.4311 0002044  99.7508 260.3715 15.08855782 90289,6917.832,95.437,541.111,538.283,0.0
52333.0,STARLINK-3847,PAYLOAD,2023-12-01 04:43:17,15.08818827,0.0001825,53.2187,332.8624,93.3023,266.8178,-0.00031935,-5.364e-05,0.0,0 STARLINK-3847,1 52333U 22045C   23335.19672998 -.00005364  00000-0 -31935-3 0  9990,2 52333  53.2187 332.8624 0001825  93.3023 266.8178 15.08818827 90407,6917.945,95.439,541.073,538.548,0.0
52333.0,STARLINK-3847,PAYLOAD,2023-12-01 09:29:26,15.08843314,0.0001665,53.2182,331.9692,102.3493,257.7686,0.00028471,4.246e-05,0.0,0 STARLINK-3847,1 52333U 22045C   23335.39544502  .00004246  00000-0  28471-3 0  9998,2 52333  53.2182 331.9692 0001665 102.3493 257.7686 15.08843314 90436,6917.87,95.437,540.887,538.583,0.0
52333.0,STARLINK-3847,PAYLOAD,2023-12-02 06:09:25,15.08892257,0.0001649,53.2178,328.1046,106.023,254.0944,0.0011885,0.00018705,0.0,0 STARLINK-3847,1 52333U 22045C   23336.25654142  .00018705  00000-0  11885-2 0  9991,2 52333  53.2178 328.1046 0001649 106.0230 254.0944 15.08892257 90565,6917.721,95.434,540.726,538.445,0.0
52333.0,STARLINK-3847,PAYLOAD,2023-12-03 02:49:26,15.0884782,0.0001292,53.2176,324.2378,93.6362,266.4778,-0.00014103,-2.532e-05,0.0,0 STARLINK-3847,1 52333U 22045C   23337.11767356 -.00002532  00000-0 -14103-3 0  9999,2 52333  53.2176 324.2378 0001292  93.6362 266.4778 15.08847820 90691,6917.856,95.437,540.615,538.828,0.0
52333.0,STARLINK-3847,PAYLOAD,2023-12-03 09:10:59,15.08835158,0.0001297,53.2172,323.0506,79.6309,280.4829,-0.00050509,-8.316e-05,0.0,0 STARLINK-3847,1 52333U 22045C   23337.38263611 -.00008316  00000-0 -50509-3 0  9999,2 52333  53.2172 323.0506 0001297  79.6309 280.4829 15.08835158 90736,6917.895,95.438,540.657,538.863,0.0
52333.0,STARLINK-3847,PAYLOAD,2023-12-04 04:15:37,15.08849624,0.0001375,53.2169,319.481,82.9786,277.1363,0.0003213,4.831e-05,0.0,0 STARLINK-3847,1 52333U 22045C   23338.17751563  .00004831  00000-0  32130-3 0  9991,2 52333  53.2169 319.4810 0001375  82.9786 277.1363 15.08849624 90854,6917.851,95.437,540.667,538.765,0.0
52333.0,STARLINK-3847,PAYLOAD,2023-12-04 09:01:46,15.08855406,0.0001479,53.2175,318.5884,79.6158,280.5,0.00085146,0.00013295,0.0,0 STARLINK-3847,1 52333U 22045C   23338.37623641  .00013295  00000-0  85146-3 0  9997,2 52333  53.2175 318.5884 0001479  79.6158 280.5000 15.08855406 90887,6917.833,95.437,540.721,538.675,0.0
52333.0,STARLINK-3847,PAYLOAD,2023-12-05 04:06:24,15.08847469,0.0001774,53.2182,315.0152,91.8198,268.2997,0.00027749,4.132e-05,0.0,0 STARLINK-3847,1 52333U 22045C   23339.17111510  .00004132  00000-0  27749-3 0  9998,2 52333  53.2182 315.0152 0001774  91.8198 268.2997 15.08847469 91006,6917.858,95.437,540.95,538.495,0.0
52333.0,STARLINK-3847,PAYLOAD,2023-12-05 08:52:33,15.08846623,0.0001781,53.2181,314.1234,92.1077,268.0119,0.00026321,3.904e-05,0.0,0 STARLINK-3847,1 52333U 22045C   23339.36983461  .00003904  00000-0  26321-3 0  9992,2 52333  53.2181 314.1234 0001781  92.1077 268.0119 15.08846623 91032,6917.86,95.437,540.957,538.493,0.0
52333.0,STARLINK-3847,PAYLOAD,2023-12-06 03:57:11,15.08841979,0.0001893,53.2186,310.5539,96.2309,263.8899,5.5436e-08,-2.87e-06,0.0,0 STARLINK-3847,1 52333U 22045C   23340.16471502 -.00000287  00000-0  55436-7 0  9995,2 52333  53.2186 310.5539 0001893  96.2309 263.8899 15.08841979 91152,6917.874,95.437,541.049,538.43,0.0
52333.0,STARLINK-3847,PAYLOAD,2023-12-06 05:32:34,15.08845196,0.0001842,53.2184,310.2556,78.6064,281.5135,-3.3772e-06,-3.42e-06,0.0,0 STARLINK-3847,1 52333U 22045C   23340.23095377 -.00000342  00000-0 -33772-5 0  9995,2 52333  53.2184 310.2556 0001842  78.6064 281.5135 15.08845196 91168,6917.865,95.437,541.004,538.455,0.0
52333.0,STARLINK-3847,PAYLOAD,2023-12-07 03:47:59,15.08828666,0.0001914,53.2197,306.0917,70.918,289.2019,8.5499e-05,1.072e-05,0.0,0 STARLINK-3847,1 52333U 22045C   23341.15832829  .00001072  00000-0  85499-4 0  9999,2 52333  53.2197 306.0917 0001914  70.9180 289.2019 15.08828666 91305,6917.915,95.438,541.104,538.456,0.0
52333.0,STARLINK-3847,PAYLOAD,2023-12-07 06:58:45,15.08839709,0.0001731,53.2195,305.5054,85.0423,275.0767,-1.9119e-05,-5.92e-06,0.0,0 STARLINK-3847,1 52333U 22045C   23341.29080365 -.00000592  00000-0 -19119-4 0  9998,2 52333  53.2195 305.5054 0001731  85.0423 275.0767 15.08839709 91328,6917.881,95.438,540.944,538.549,0.0
52333.0,STARLINK-3847,PAYLOAD,2023-12-08 06:49:32,15.08841018,0.000164,53.2191,301.0414,85.6859,274.4321,5.9782e-05,6.64e-06,0.0,0 STARLINK-3847,1 52333U 22045C   23342.28440349  .00000664  00000-0  59782-4 0  9998,2 52333  53.2191 301.0414 0001640  85.6859 274.4321 15.08841018 91474,6917.877,95.437,540.877,538.608,0.0
52333.0,STARLINK-3847,PAYLOAD,2023-12-09 03:29:32,15.08849738,0.0001509,53.2181,297.1781,84.9892,275.1273,0.000192,2.77e-05,0.0,0 STARLINK-3847,1 52333U 22045C   23343.14551440  .00002770  00000-0  19200-3 0  9999,2 52333  53.2181 297.1781 0001509  84.9892 275.1273 15.08849738 91604,6917.851,95.437,540.76,538.672,0.0
52333.0,STARLINK-3847,PAYLOAD,2023-12-09 06:40:18,15.08852877,0.0001518,53.2184,296.5808,92.0979,268.0187,0.00023526,3.459e-05,0.0,0 STARLINK-3847,1 52333U 22045C   23343.27799109  .00003459  00000-0  23526-3 0  9990,2 52333  53.2184 296.5808 0001518  92.0979 268.0187 15.08852877 91621,6917.841,95.437,540.756,538.656,0.0
52333.0,STARLINK-3847,PAYLOAD,2023-12-09 20:58:47,15.08838743,0.0001266,53.2177,293.9094,92.9268,267.1869,-5.776e-06,-3.8e-06,0.0,0 STARLINK-3847,1 52333U 22045C   23343.87416637 -.00000380  00000-0 -57760-5 0  9999,2 52333  53.2177 293.9094 0001266  92.9268 267.1869 15.08838743 91714,6917.884,95.438,540.625,538.873,0.0
52333.0,STARLINK-3847,PAYLOAD,2023-12-11 03:11:06,15.08850712,0.0001538,53.2182,288.2563,121.5407,238.5735,-3.7781e-05,-8.89e-06,0.0,0 STARLINK-3847,1 52333U 22045C   23345.13271671 -.00000889  00000-0 -37781-4 0  9991,2 52333  53.2182 288.2563 0001538 121.5407 238.5735 15.08850712 91909,6917.848,95.437,540.777,538.649,0.0
52333.0,STARLINK-3847,PAYLOAD,2023-12-12 01:26:31,15.08836553,0.0001492,53.218,284.0936,112.351,247.764,8.6971e-05,1.096e-05,0.0,0 STARLINK-3847,1 52333U 22045C   23346.06008479  .00001096  00000-0  86971-4 0  9992,2 52333  53.2180 284.0936 0001492 112.3510 247.7640 15.08836553 92047,6917.891,95.438,540.788,538.724,0.0
52333.0,STARLINK-3847,PAYLOAD,2023-12-13 01:17:17,15.08856682,0.0001348,53.2176,279.6357,105.6187,254.4954,0.00017784,2.545e-05,0.0,0 STARLINK-3847,1 52333U 22045C   23347.05367072  .00002545  00000-0  17784-3 0  9994,2 52333  53.2176 279.6357 0001348 105.6187 254.4954 15.08856682 92198,6917.829,95.436,540.627,538.762,0.0
52333.0,STARLINK-3847,PAYLOAD,2023-12-14 02:43:28,15.08836007,0.0001196,53.216,274.8732,101.8949,258.2178,-0.00012374,-2.256e-05,0.0,0 STARLINK-3847,1 52333U 22045C   23348.11352060 -.00002256  00000-0 -12374-3 0  9994,2 52333  53.2160 274.8732 0001196 101.8949 258.2178 15.08836007 92357,6917.893,95.438,540.585,538.93,0.0
52333.0,STARLINK-3847,PAYLOAD,2023-12-15 02:34:14,15.08850058,0.000147,53.2172,270.4177,83.8189,276.297,3.5963e-05,2.85e-06,0.0,0 STARLINK-3847,1 52333U 22045C   23349.10711725  .00000285  00000-0  35963-4 0  9999,2 52333  53.2172 270.4177 0001470  83.8189 276.2970 15.08850058 92504,6917.85,95.437,540.732,538.698,0.0
52333.0,STARLINK-3847,PAYLOAD,2023-12-16 00:49:40,15.08833034,0.0001447,53.2162,266.2559,83.4965,276.6192,0.00014309,1.99e-05,0.0,0 STARLINK-3847,1 52333U 22045C   23350.03449121  .00001990  00000-0  14309-3 0  9995,2 52333  53.2162 266.2559 0001447  83.4965 276.6192 15.08833034 92642,6917.902,95.438,540.768,538.766,0.0
52333.0,STARLINK-3847,PAYLOAD,2023-12-17 00:40:26,15.08845199,0.0001517,53.2169,261.7976,83.276,276.8405,0.00020795,3.024e-05,0.0,0 STARLINK-3847,1 52333U 22045C   23351.02809008  .00003024  00000-0  20795-3 0  9995,2 52333  53.2169 261.7976 0001517  83.2760 276.8405 15.08845199 92791,6917.864,95.437,540.779,538.68,0.0
52333.0,STARLINK-3847,PAYLOAD,2023-12-17 21:20:27,15.0885105,0.0001567,53.2175,257.9348,92.65,267.4672,0.00034763,5.251e-05,0.0,0 STARLINK-3847,1 52333U 22045C   23351.88920858  .00005251  00000-0  34763-3 0  9990,2 52333  53.2175 257.9348 0001567  92.6500 267.4672 15.08851050 92929,6917.847,95.437,540.796,538.628,0.0
52333.0,STARLINK-3847,PAYLOAD,2023-12-18 00:31:13,15.08855075,0.0001656,53.217,257.3367,83.4226,276.6955,0.00040714,6.2e-05,0.0,0 STARLINK-3847,1 52333U 22045C   23352.02168671  .00006200  00000-0  40714-3 0  9992,2 52333  53.2170 257.3367 0001656  83.4226 276.6955 15.08855075 92940,6917.834,95.437,540.845,538.554,0.0
52333.0,STARLINK-3847,PAYLOAD,2023-12-18 21:11:14,15.08841419,0.000142,53.2179,253.4718,99.8145,260.3007,4.9405e-05,4.98e-06,0.0,0 STARLINK-3847,1 52333U 22045C   23352.88280970  .00000498  00000-0  49405-4 0  9993,2 52333  53.2179 253.4718 0001420  99.8145 260.3007 15.08841419 93076,6917.876,95.437,540.723,538.759,0.0
52333.0,STARLINK-3847,PAYLOAD,2023-12-19 00:22:00,15.08842744,0.000161,53.2174,252.8753,107.5332,252.5836,7.5338e-05,9.11e-06,0.0,0 STARLINK-3847,1 52333U 22045C   23353.01528865  .00000911  00000-0  75338-4 0  9991,2 52333  53.2174 252.8753 0001610 107.5332 252.5836 15.08842744 93096,6917.872,95.437,540.851,538.623,0.0
